CUTE-1 (CO-55)          
1 27844U 03031E   26178.29336883  .00000290  00000+0  14447-3 0  9991
2 27844  98.6736 186.7252 0010153 149.6738 210.5031 14.24341593193118
CUBESAT XI-IV (CO-57)   
1 27848U 03031J   26177.93548419  .00000243  00000+0  12580-3 0  9999
2 27848  98.6768 186.0767 0009653 168.4758 191.6643 14.23625736192766
CUBESAT XI-V            
1 28895U 05043F   26177.91503073  .00001438  00000+0  23373-3 0  9991
2 28895  98.2993 333.7414 0014316 169.8184 190.3315 14.72656457103183
CUTE-1.7+APD II (CO-65) 
1 32785U 08021C   26178.25838127  .00004840  00000+0  30559-3 0  9996
2 32785  97.8271 159.8869 0008729   7.6473 352.4887 15.09544451986716
CANX-2                  
1 32790U 08021H   26177.92462933  .00003739  00000+0  26291-3 0  9997
2 32790  97.8635 157.8920 0010772  22.2102 337.9588 15.05685256986277
SEEDS II (CO-66)        
1 32791U 08021J   26178.25357930  .00019593  00000+0  61471-3 0  9999
2 32791  97.7515 176.6340 0000600 209.4374 150.6834 15.33086255988831
SWISSCUBE               
1 35932U 09051B   26178.22596677  .00000996  00000+0  20612-3 0  9992
2 35932  98.4029  86.2889 0006694 170.0562 190.0773 14.62499621890629
BEESAT-1                
1 35933U 09051C   26177.69301354  .00000752  00000+0  16076-3 0  9998
2 35933  98.3957  85.3622 0004848 183.3217 176.7952 14.61734342890572
ITUPSAT1                
1 35935U 09051E   26177.69222981  .00000700  00000+0  15443-3 0  9998
2 35935  98.4042  84.5432 0006750 199.9772 160.1164 14.60453570890126
TISAT 1                 
1 36799U 10035E   26178.11120913  .00021359  00000+0  69124-3 0  9999
2 36799  98.0704 125.5427 0002787 151.6215 208.5177 15.32075173869226
AEROCUBE 4.5A           
1 38767U 12048K   26178.21307348  .01199878  91737-3  12350-2 0  9994
2 38767  64.6176 349.8406 0018533 254.7310 105.1811 16.10182059374261
STRAND-1                
1 39090U 13009E   26177.94228705  .00000286  00000+0  11041-3 0  9999
2 39090  98.3924 357.9366 0008273 193.8738 166.2222 14.37168802698460
BRITE-AUSTRIA           
1 39091U 13009F   26178.23798892  .00000171  00000+0  72731-4 0  9999
2 39091  98.3998 357.4250 0009645 203.9103 156.1637 14.36545799698496
NEE-01 PEGASO           
1 39151U 13018B   26178.11309692  .00002359  00000+0  22838-3 0  9991
2 39151  98.1232 322.5921 0013535 128.5068 231.7367 14.93708957712188
POPACS 2                
1 39269U 13055E   26177.90568677  .00015110  00000+0  25348-3 0  9996
2 39269  80.9907 133.0666 0416428 162.5758 199.0261 14.91465034664661
POPACS 3                
1 39270U 13055F   26178.15097482  .00010709  00000+0  25251-3 0  9999
2 39270  81.0002 218.3833 0551116  39.6618 324.3554 14.56301719640007
ZACUBE-1 (TSHEPISOSAT)  
1 39417U 13066B   26178.13884487  .00003358  00000+0  26151-3 0  9993
2 39417  97.8047 140.5267 0042183 213.8179 146.0354 15.01240877682223
WNISAT-1                
1 39423U 13066H   26178.29912766  .00001158  00000+0  21877-3 0  9995
2 39423  97.7211 326.7382 0162596 199.5795 159.9116 14.58081471668208
TRITON-1                
1 39427U 13066M   26178.29020979  .00001743  00000+0  21324-3 0  9992
2 39427  97.8242  87.8677 0089171 200.5151 159.2473 14.81736095675588
GOMX-1                  
1 39430U 13066Q   26178.26362956  .00002057  00000+0  31241-3 0  9995
2 39430  97.6484  18.0903 0129792  45.5773 315.5969 14.69493788671394
CUBEBUG-2 (LO-74)       
1 39440U 13066AA  26178.31177139  .00004554  00000+0  42088-3 0  9994
2 39440  97.8904 127.3330 0057383 355.5679   4.5024 14.93842300678509
NEE-02 KRYSAOR          
1 39441U 13066AB  26177.76677494  .00002672  00000+0  29517-3 0  9993
2 39441  97.8892 116.9131 0067124  39.4303 321.1770 14.86659035677626
FUNCUBE-1 (AO-73)       
1 39444U 13066AE  26178.19848783  .00007726  00000+0  47725-3 0  9991
2 39444  97.8270 149.8537 0036673 166.8989 193.3201 15.09604737681172
UWE-3                   
1 39446U 13066AG  26177.84042902  .00004205  00000+0  36187-3 0  9992
2 39446  97.8709 133.9799 0046794 288.3987  71.2149 14.97101122679020
BRITE-CA1 (TORONTO)     
1 40020U 14033L   26178.29738759  .00000870  00000+0  13839-3 0  9992
2 40020  97.9749 307.0395 0077360 244.0799 115.2422 14.72691743643709
DUCHIFAT-1              
1 40021U 14033M   26178.12074074  .00123708  00000+0  11664-2 0  9997
2 40021  98.0447 238.6906 0001012 103.7667 256.3704 15.66663856657309
NANOSATC-BR1            
1 40024U 14033Q   26178.07067232  .00017817  00000+0  58279-3 0  9999
2 40024  98.0720 211.3356 0005075 138.8301 221.3322 15.31766053655491
QB50P1                  
1 40025U 14033R   26178.29918808  .00008713  00000+0  42669-3 0  9999
2 40025  98.0962 190.1548 0008862 179.4885 180.6358 15.18409172654566
QB50P2                  
1 40032U 14033Y   26177.93986302  .00007905  00000+0  42349-3 0  9998
2 40032  98.0751 175.4276 0008808 134.4942 225.7010 15.15279708654146
PERSEUS-M2              
1 40037U 14033AD  26178.23304512  .00002036  00000+0  18906-3 0  9996
2 40037  97.9973 128.9787 0010006 267.7207  92.2868 14.95545759652282
